NORAD_CAT_ID,OBJECT_NAME,OBJECT_TYPE,EPOCH,MEAN_MOTION,ECCENTRICITY,INCLINATION,RA_OF_ASC_NODE,ARG_OF_PERICENTER,MEAN_ANOMALY,BSTAR,MEAN_MOTION_DOT,MEAN_MOTION_DDOT,TLE_LINE0,TLE_LINE1,TLE_LINE2,SEMIMAJOR_AXIS,PERIOD,APOGEE,PERIGEE,DECAYED
53986.0,STARLINK-5119,PAYLOAD,2022-10-11 18:00:00,15.81220692,0.0001313,53.2174,63.0392,42.294,10.1555,-0.0067266,-0.01200024,0.0,0 STARLINK-5119,1 53986U 22125Y   22284.75001157 -.01200024  00000-0 -67266-2 0  9997,2 53986  53.2174  63.0392 0001313  42.2940  10.1555 15.81220692  1304,6705.125,91.069,327.87,326.1090000000001,0.0
53986.0,STARLINK-5119,PAYLOAD,2022-10-12 12:00:00,15.79268494,0.0001024,53.2178,59.2874,61.4591,300.0931,-0.0073653999999999,-0.01200175,0.0,0 STARLINK-5119,1 53986U 22125Y   22285.50001157 -.01200175  00000-0 -73654-2 0  9996,2 53986  53.2178  59.2874 0001024  61.4591 300.0931 15.79268494  1414,6710.649,91.181,333.201,331.827,0.0
53986.0,STARLINK-5119,PAYLOAD,2022-10-12 14:00:01,15.79047715,0.0001240999999999,53.2175,58.8721,57.4575,58.1144,-0.0073973999999999,-0.01194136,0.0,0 STARLINK-5119,1 53986U 22125Y   22285.58334491 -.01194136  00000-0 -73974-2 0  9998,2 53986  53.2175  58.8721 0001241  57.4575  58.1144 15.79047715  1301,6711.275,91.194,333.972,332.307,0.0
53986.0,STARLINK-5119,PAYLOAD,2022-10-12 22:00:00,15.78182067,0.0001226,53.217,57.2097,61.6323,149.3616,-0.0077180999999999,-0.01197295,0.0,0 STARLINK-5119,1 53986U 22125Y   22285.91667824 -.01197295  00000-0 -77181-2 0  9997,2 53986  53.2170  57.2097 0001226  61.6323 149.3616 15.78182067  1302,6713.728,91.244,336.417,334.77,0.0
53986.0,STARLINK-5119,PAYLOAD,2022-10-13 04:00:00,15.77528027,0.0001184,53.2174,55.9623,65.8837,125.9949,-0.0079096,-0.01191882,0.0,0 STARLINK-5119,1 53986U 22125Y   22286.16667824 -.01191882  00000-0 -79096-2 0  9998,2 53986  53.2174  55.9623 0001184  65.8837 125.9949 15.77528027  1527,6715.584,91.282,338.244,336.654,0.0
53986.0,STARLINK-5119,PAYLOAD,2022-10-13 14:00:01,15.76445914,0.0001624,53.2174,53.8902,29.7151,8.9956,-0.0083341,-0.01196058,0.0,0 STARLINK-5119,1 53986U 22125Y   22286.58334491 -.01196058  00000-0 -83341-2 0  9993,2 53986  53.2174  53.8902 0001624  29.7151   8.9956 15.76445914  1307,6718.656999999997,91.345,341.61300000000006,339.431,0.0
53986.0,STARLINK-5119,PAYLOAD,2022-10-13 16:00:00,15.76227472,0.0001761,53.2173,53.4763,34.6449,117.2373,-0.008395,-0.01193523,0.0,0 STARLINK-5119,1 53986U 22125Y   22286.66667824 -.01193523  00000-0 -83950-2 0  9991,2 53986  53.2173  53.4763 0001761  34.6449 117.2373 15.76227472  1601,6719.278,91.357,342.326,339.959,0.0
53986.0,STARLINK-5119,PAYLOAD,2022-10-13 22:00:00,15.75577284,0.0001735,53.2173,52.2339,31.3182,99.6867,-0.0086509,-0.01194734,0.0,0 STARLINK-5119,1 53986U 22125Y   22286.91667824 -.01194734  00000-0 -86509-2 0  9997,2 53986  53.2173  52.2339 0001735  31.3182  99.6867 15.75577284  1302,6721.126,91.395,344.157,341.825,0.0
53986.0,STARLINK-5119,PAYLOAD,2022-10-14 04:00:00,15.79750292,0.0001672,53.2251,50.9629,28.0534,98.189,0.00089275,0.00170008,0.0,0 STARLINK-5119,1 53986U 22125Y   22287.16667824  .00170008  00000-0  89275-3 0  9994,2 53986  53.2251  50.9629 0001672  28.0534  98.1890 15.79750292  1687,6709.285,91.154,332.271,330.028,0.0
53986.0,STARLINK-5119,PAYLOAD,2022-10-14 14:00:01,15.79894574,0.0001986,53.2247,48.8826,27.1171,310.2284,0.00054338,0.00103081,0.0,0 STARLINK-5119,1 53986U 22125Y   22287.58334491  .00103081  00000-0  54338-3 0  9990,2 53986  53.2247  48.8826 0001986  27.1171 310.2284 15.79894574  1308,6708.876,91.145,332.0730000000001,329.409,0.0
53986.0,STARLINK-5119,PAYLOAD,2022-10-14 22:00:00,15.799834900000002,0.0002102,53.2242,47.2171,24.2289,50.1236,0.00059652,0.00113836,0.0,0 STARLINK-5119,1 53986U 22125Y   22287.91667824  .00113836  00000-0  59652-3 0  9999,2 53986  53.2242  47.2171 0002102  24.2289  50.1236 15.79983490  1806,6708.624,91.14,331.9,329.079,0.0
53986.0,STARLINK-5119,PAYLOAD,2022-10-15 04:00:00,15.79979138,0.0001874,53.2245,45.9665,27.311,29.7329,0.00088148,0.00169612,0.0,0 STARLINK-5119,1 53986U 22125Y   22288.16667824  .00169612  00000-0  88148-3 0  9992,2 53986  53.2245  45.9665 0001874  27.3110  29.7329 15.79979138  1836,6708.637,91.14,331.759,329.244,0.0
53986.0,STARLINK-5119,PAYLOAD,2022-10-15 10:00:00,15.79451956,0.0001788,53.2248,44.7213,20.5347,17.4965,-0.00014679,-0.00027743,0.0,0 STARLINK-5119,1 53986U 22125Y   22288.41667824 -.00027743  00000-0 -14679-3 0  9998,2 53986  53.2248  44.7213 0001788  20.5347  17.4965 15.79451956  1873,6710.129,91.171,333.194,330.795,0.0
53986.0,STARLINK-5119,PAYLOAD,2022-10-15 14:00:01,15.79432732,0.0001988,53.2246,43.8902,17.6937,248.5508,-8.795e-05,-0.00016903,0.0,0 STARLINK-5119,1 53986U 22125Y   22288.58334491 -.00016903  00000-0 -87950-4 0  9996,2 53986  53.2246  43.8902 0001988  17.6937 248.5508 15.79432732  1309,6710.184,91.172,333.3830000000001,330.715,0.0
53986.0,STARLINK-5119,PAYLOAD,2022-10-15 20:00:01,15.79460212,0.0002169,53.2215,42.6422,20.9635,227.6104,-0.00074296,-0.00135997,0.0,0 STARLINK-5119,1 53986U 22125Y   22288.83335648 -.00135997  00000-0 -74296-3 0  9992,2 53986  53.2215  42.6422 0002169  20.9635 227.6104 15.79460212  1947,6710.106,91.17,333.426,330.516,0.0
53986.0,STARLINK-5119,PAYLOAD,2022-10-15 22:00:01,15.79440708,0.000217,53.2209,42.2254,25.0835,337.5958,-0.00071036,-0.00130033,0.0,0 STARLINK-5119,1 53986U 22125Y   22288.91668981 -.00130033  00000-0 -71036-3 0  9995,2 53986  53.2209  42.2254 0002170  25.0835 337.5958 15.79440708  1305,6710.161,91.172,333.482,330.57,0.0
53986.0,STARLINK-5119,PAYLOAD,2022-10-16 04:00:00,15.79343465,0.0002004,53.2245,40.9759,22.3826,322.5581,8.0167e-05,0.00014093,0.0,0 STARLINK-5119,1 53986U 22125Y   22289.16667824  .00014093  00000-0  80167-4 0  9999,2 53986  53.2245  40.9759 0002004  22.3826 322.5581 15.79343465  1999,6710.437,91.177,333.646,330.957,0.0
53986.0,STARLINK-5119,PAYLOAD,2022-10-16 12:00:00,15.79388112,0.0002183,53.2233,39.3126,19.6982,61.5977,0.00042331,0.00078087,0.0,0 STARLINK-5119,1 53986U 22125Y   22289.50001157  .00078087  00000-0  42331-3 0  9991,2 53986  53.2233  39.3126 0002183  19.6982  61.5977 15.79388112  2051,6710.31,91.175,333.64,330.71,0.0
53986.0,STARLINK-5119,PAYLOAD,2022-10-16 14:00:01,15.79394306,0.0002276999999999,53.2226,38.897,18.6373,176.7525,0.00052515,0.00097285,0.0,0 STARLINK-5119,1 53986U 22125Y   22289.58334491  .00097285  00000-0  52515-3 0  9995,2 53986  53.2226  38.8970 0002277  18.6373 176.7525 15.79394306  1308,6710.293000000002,91.174,333.686,330.63,0.0
53986.0,STARLINK-5119,PAYLOAD,2022-10-16 22:00:00,15.79624612,0.0002082,53.2198,37.2313,18.9005,272.8408,-0.0012745999999999,-0.00231999,0.0,0 STARLINK-5119,1 53986U 22125Y   22289.91667824 -.00231999  00000-0 -12746-2 0  9996,2 53986  53.2198  37.2313 0002082  18.9005 272.8408 15.79624612  1303,6709.64,91.161,332.902,330.108,0.0
53986.0,STARLINK-5119,PAYLOAD,2022-10-17 04:00:00,15.79551937,0.0001827,53.2184,35.9802,27.3381,246.8547,-0.0035054,-0.00607967,0.0,0 STARLINK-5119,1 53986U 22125Y   22290.16667824 -.00607967  00000-0 -35054-2 0  9994,2 53986  53.2184  35.9802 0001827  27.3381 246.8547 15.79551937  2151,6709.846,91.165,332.9369999999999,330.485,0.0
53986.0,STARLINK-5119,PAYLOAD,2022-10-17 12:00:00,15.79129037,0.0002349,53.2176,34.3163,305.0065,65.4837,-0.003185,-0.00545872,0.0,0 STARLINK-5119,1 53986U 22125Y   22290.50001157 -.00545872  00000-0 -31850-2 0  9999,2 53986  53.2176  34.3163 0002349 305.0065  65.4837 15.79129037  2205,6711.044,91.19,334.486,331.333,0.0
53986.0,STARLINK-5119,PAYLOAD,2022-10-17 14:00:01,15.79029395,0.0002603,53.2174,33.9009,301.5861,182.9032,-0.0031413,-0.00536578,0.0,0 STARLINK-5119,1 53986U 22125Y   22290.58334491 -.00536578  00000-0 -31413-2 0  9995,2 53986  53.2174  33.9009 0002603 301.5861 182.9032 15.79029395  1303,6711.326,91.195,334.9380000000001,331.445,0.0
53986.0,STARLINK-5119,PAYLOAD,2022-10-17 22:00:00,15.78661774,0.0004017999999999,53.2179,32.2371,284.4738,295.7187,-0.0033345,-0.00559017,0.0,0 STARLINK-5119,1 53986U 22125Y   22290.91667824 -.00559017  00000-0 -33345-2 0  9990,2 53986  53.2179  32.2371 0004018 284.4738 295.7187 15.78661774  1302,6712.368,91.216,336.93,331.536,0.0
53986.0,STARLINK-5119,PAYLOAD,2022-10-18 12:00:00,15.7799367,0.0007119,53.2173,29.3285,273.0173,23.5656,-0.0033943,-0.00553467,0.0,0 STARLINK-5119,1 53986U 22125Y   22291.50001157 -.00553467  00000-0 -33943-2 0  9994,2 53986  53.2173  29.3285 0007119 273.0173  23.5656 15.77993670  2366,6714.263000000001,91.255,340.908,331.348,0.0
53986.0,STARLINK-5119,PAYLOAD,2022-10-18 14:00:01,15.77892259,0.0007449,53.2173,28.9136,272.74,137.5005,-0.0033293,-0.00541279,0.0,0 STARLINK-5119,1 53986U 22125Y   22291.58334491 -.00541279  00000-0 -33293-2 0  9998,2 53986  53.2173  28.9136 0007449 272.7400 137.5005 15.77892259  1309,6714.55,91.261,341.417,331.414,0.0
53986.0,STARLINK-5119,PAYLOAD,2022-10-18 22:00:00,15.77516079,0.0007899,53.2173,27.2522,270.4066,234.1714,-0.0034326,-0.00548432,0.0,0 STARLINK-5119,1 53986U 22125Y   22291.91667824 -.00548432  00000-0 -34326-2 0  9990,2 53986  53.2173  27.2522 0007899 270.4066 234.1714 15.77516079  1306,6715.618,91.283,342.788,332.17800000000005,0.0
53986.0,STARLINK-5119,PAYLOAD,2022-10-19 14:00:01,15.76747276,0.0004753,53.2186,23.9351,267.2626,64.6249,-0.0034413,-0.00531242,0.0,0 STARLINK-5119,1 53986U 22125Y   22292.58334491 -.00531242  00000-0 -34413-2 0  9993,2 53986  53.2186  23.9351 0004753 267.2626  64.6249 15.76747276  1308,6717.801,91.327,342.8590000000001,336.473,0.0
53986.0,STARLINK-5119,PAYLOAD,2022-10-19 20:00:01,15.76464465,0.000358,53.2172,22.6907,264.1968,47.4597,-0.0035009,-0.00533263,0.0,0 STARLINK-5119,1 53986U 22125Y   22292.83334491 -.00533263  00000-0 -35009-2 0  9998,2 53986  53.2172  22.6907 0003580 264.1968  47.4597 15.76464465  2579,6718.604,91.344,342.874,338.064,0.0
